NORAD_CAT_ID,OBJECT_NAME,OBJECT_TYPE,EPOCH,MEAN_MOTION,ECCENTRICITY,INCLINATION,RA_OF_ASC_NODE,ARG_OF_PERICENTER,MEAN_ANOMALY,BSTAR,MEAN_MOTION_DOT,MEAN_MOTION_DDOT,TLE_LINE0,TLE_LINE1,TLE_LINE2,SEMIMAJOR_AXIS,PERIOD,APOGEE,PERIGEE,DECAYED
55650.0,STARLINK-5494,PAYLOAD,2024-02-07 10:31:10,14.98323252,0.0001704,70.0027,303.8279,286.3865,73.7107,-3.4652e-05,-5.06e-06,0.0,0 STARLINK-5494,1 55650U 23021Y   24038.43832124 -.00000506  00000-0 -34652-4 0  9990,2 55650  70.0027 303.8279 0001704 286.3865  73.7107 14.98323252 54767,6950.214,96.107,573.263,570.894,0.0
55650.0,STARLINK-5494,PAYLOAD,2024-02-07 20:07:59,14.98326353,0.0002704,69.9998,302.8194,272.7183,87.3666,-0.00011087,-1.415e-05,0.0,0 STARLINK-5494,1 55650U 23021Y   24038.83887860 -.00001415  00000-0 -11087-3 0  9997,2 55650  69.9998 302.8194 0002704 272.7183  87.3666 14.98326353 54529,6950.204,96.107,573.949,570.19,0.0
55650.0,STARLINK-5494,PAYLOAD,2024-02-07 21:44:07,14.98325869,0.0002693,70.0,302.6512,272.7608,87.3242,-0.00012117,-1.538e-05,0.0,0 STARLINK-5494,1 55650U 23021Y   24038.90563941 -.00001538  00000-0 -12117-3 0  9997,2 55650  70.0000 302.6512 0002693 272.7608  87.3242 14.98325869 54832,6950.206,96.107,573.942,570.199,0.0
55650.0,STARLINK-5494,PAYLOAD,2024-02-08 02:32:31,14.98325579,0.0002502,70.0005,302.1467,261.876,98.2115,-8.403e-05,-1.095e-05,0.0,0 STARLINK-5494,1 55650U 23021Y   24039.10591846 -.00001095  00000-0 -84030-4 0  9997,2 55650  70.0005 302.1467 0002502 261.8760  98.2115 14.98325579 54869,6950.207,96.107,573.811,570.333,0.0
55650.0,STARLINK-5494,PAYLOAD,2024-02-08 20:09:59,14.9832974,0.000267,69.9999,300.2956,262.0018,98.0838,-1.6756e-05,-2.93e-06,0.0,0 STARLINK-5494,1 55650U 23021Y   24039.84027448 -.00000293  00000-0 -16756-4 0  9999,2 55650  69.9999 300.2956 0002670 262.0018  98.0838 14.98329740 54678,6950.194,96.107,573.914,570.203,0.0
55650.0,STARLINK-5494,PAYLOAD,2024-02-08 21:46:07,14.98330449,0.0002734,69.9999,300.1274,264.0847,96.0001,-2.8726e-05,-4.36e-06,0.0,0 STARLINK-5494,1 55650U 23021Y   24039.90703443 -.00000436  00000-0 -28726-4 0  9991,2 55650  69.9999 300.1274 0002734 264.0847  96.0001 14.98330449 54985,6950.192,96.107,573.957,570.156,0.0
55650.0,STARLINK-5494,PAYLOAD,2024-02-09 02:34:31,14.98331648,0.0002596,70.0001,299.622,257.1847,102.9022,3.0652e-05,2.73e-06,0.0,0 STARLINK-5494,1 55650U 23021Y   24040.10731177  .00000273  00000-0  30652-4 0  9998,2 55650  70.0001 299.6220 0002596 257.1847 102.9022 14.98331648 55011,6950.188,96.107,573.857,570.249,0.0
55650.0,STARLINK-5494,PAYLOAD,2024-02-09 20:12:00,14.98324338,0.0002659,70.0,297.771,262.946,97.1396,4.6513e-05,4.62e-06,0.0,0 STARLINK-5494,1 55650U 23021Y   24040.84167712  .00000462  00000-0  46513-4 0  9990,2 55650  70.0000 297.7710 0002659 262.9460  97.1396 14.98324338 54823,6950.21,96.107,573.923,570.227,0.0
55650.0,STARLINK-5494,PAYLOAD,2024-02-10 02:36:32,14.98326916,0.000264,69.9998,297.0964,261.5472,98.5388,7.1102e-05,7.55e-06,0.0,0 STARLINK-5494,1 55650U 23021Y   24041.10871527  .00000755  00000-0  71102-4 0  9993,2 55650  69.9998 297.0964 0002640 261.5472  98.5388 14.98326916 55166,6950.202,96.107,573.902,570.233,0.0
55650.0,STARLINK-5494,PAYLOAD,2024-02-10 20:14:01,14.98332096,0.0002651,69.9996,295.2443,262.2963,97.7895,4.0136e-06,-4.5e-07,0.0,0 STARLINK-5494,1 55650U 23021Y   24041.84307390 -.00000045  00000-0  40136-5 0  9993,2 55650  69.9996 295.2443 0002651 262.2963  97.7895 14.98332096 54979,6950.186,96.107,573.894,570.209,0.0
55650.0,STARLINK-5494,PAYLOAD,2024-02-10 21:50:09,14.98331918,0.0002654,69.9996,295.076,262.4612,97.6246,2.0922e-06,-6.8e-07,0.0,0 STARLINK-5494,1 55650U 23021Y   24041.90983398 -.00000068  00000-0  20922-5 0  9994,2 55650  69.9996 295.0760 0002654 262.4612  97.6246 14.98331918 55281,6950.187,96.107,573.897,570.207,0.0
55650.0,STARLINK-5494,PAYLOAD,2024-02-11 02:38:33,14.98333407,0.0002643,69.9997,294.5713,262.1821,97.9038,1.8713e-05,1.3e-06,0.0,0 STARLINK-5494,1 55650U 23021Y   24042.11011226  .00000130  00000-0  18713-4 0  9993,2 55650  69.9997 294.5713 0002643 262.1821  97.9038 14.98333407 55312,6950.182,96.107,573.884,570.21,0.0
55650.0,STARLINK-5494,PAYLOAD,2024-02-11 20:16:02,14.98332951,0.0002751,69.9994,292.7198,263.2876,96.797,2.0661e-05,1.54e-06,0.0,0 STARLINK-5494,1 55650U 23021Y   24042.84447099  .00000154  00000-0  20661-4 0  9995,2 55650  69.9994 292.7198 0002751 263.2876  96.7970 14.98332951 55122,6950.184,96.107,573.961,570.137,0.0
55650.0,STARLINK-5494,PAYLOAD,2024-02-11 21:52:10,14.98332555,0.0002755,69.9994,292.5514,262.8703,97.2142,1.5858e-05,9.6e-07,0.0,0 STARLINK-5494,1 55650U 23021Y   24042.91123116  .00000096  00000-0  15858-4 0  9991,2 55650  69.9994 292.5514 0002755 262.8703  97.2142 14.98332555 55431,6950.185,96.107,573.965,570.135,0.0
55650.0,STARLINK-5494,PAYLOAD,2024-02-12 02:40:34,14.98336763,0.00027,69.9993,292.0466,261.2275,98.8578,6.3917e-05,6.7e-06,0.0,0 STARLINK-5494,1 55650U 23021Y   24043.11150638  .00000670  00000-0  63917-4 0  9990,2 55650  69.9993 292.0466 0002700 261.2275  98.8578 14.98336763 55466,6950.172,96.107,573.914,570.16,0.0
55650.0,STARLINK-5494,PAYLOAD,2024-02-12 20:18:03,14.98328405,0.0002618,69.9999,290.1967,241.6754,118.4141,-1.8821e-05,-3.17e-06,0.0,0 STARLINK-5494,1 55650U 23021Y   24043.84587213 -.00000317  00000-0 -18821-4 0  9997,2 55650  69.9999 290.1967 0002618 241.6754 118.4141 14.98328405 55277,6950.198,96.107,573.882,570.243,0.0
55650.0,STARLINK-5494,PAYLOAD,2024-02-12 21:54:11,14.9832826,0.0002614,70.0,290.0284,241.6914,118.3981,-2.0338e-05,-3.36e-06,0.0,0 STARLINK-5494,1 55650U 23021Y   24043.91263222 -.00000336  00000-0 -20338-4 0  9993,2 55650  70.0000 290.0284 0002614 241.6914 118.3981 14.98328260 55582,6950.198,96.107,573.88,570.246,0.0
55650.0,STARLINK-5494,PAYLOAD,2024-02-13 09:07:08,14.98327137,0.0002392,69.9998,288.8482,260.6959,99.3929,-7.5163e-05,-9.9e-06,0.0,0 STARLINK-5494,1 55650U 23021Y   24044.37995628 -.00000990  00000-0 -75163-4 0  9998,2 55650  69.9998 288.8482 0002392 260.6959  99.3929 14.98327137 55653,6950.202,96.107,573.729,570.404,0.0
55650.0,STARLINK-5494,PAYLOAD,2024-02-13 21:56:12,14.98330325,0.0002687,69.9988,287.5004,259.7795,100.3061,-6.6371e-06,-1.72e-06,0.0,0 STARLINK-5494,1 55650U 23021Y   24044.91403118 -.00000172  00000-0 -66371-5 0  9990,2 55650  69.9988 287.5004 0002687 259.7795 100.3061 14.98330325 55734,6950.192,96.107,573.924,570.189,0.0
55650.0,STARLINK-5494,PAYLOAD,2024-02-14 01:08:28,14.98333608,0.0002627,69.9987,287.1636,263.3466,96.7394,9.8531e-06,2.5e-07,0.0,0 STARLINK-5494,1 55650U 23021Y   24045.04754866  .00000025  00000-0  98531-5 0  9992,2 55650  69.9987 287.1636 0002627 263.3466  96.7394 14.98333608 55453,6950.182,96.107,573.873,570.221,0.0
55650.0,STARLINK-5494,PAYLOAD,2024-02-14 09:09:08,14.98335319,0.0002728,69.9984,286.3226,271.8779,88.2068,-5.0505e-05,-6.96e-06,0.0,0 STARLINK-5494,1 55650U 23021Y   24045.38134826 -.00000696  00000-0 -50505-4 0  9991,2 55650  69.9984 286.3226 0002728 271.8779  88.2068 14.98335319 55803,6950.176,96.107,573.937,570.145,0.0
55650.0,STARLINK-5494,PAYLOAD,2024-02-14 21:58:13,14.98328407,0.0002739,69.9987,284.9763,263.0836,97.0011,2.5386e-05,2.1e-06,0.0,0 STARLINK-5494,1 55650U 23021Y   24045.91543086  .00000210  00000-0  25386-4 0  9991,2 55650  69.9987 284.9763 0002739 263.0836  97.0011 14.98328407 55889,6950.198,96.107,573.966,570.159,0.0
55650.0,STARLINK-5494,PAYLOAD,2024-02-15 01:10:29,14.98329423,0.0002705,69.9988,284.6396,263.6596,96.4255,4.7808e-05,4.77e-06,0.0,0 STARLINK-5494,1 55650U 23021Y   24046.04894974  .00000477  00000-0  47808-4 0  9999,2 55650  69.9988 284.6396 0002705 263.6596  96.4255 14.98329423 55603,6950.195,96.107,573.94,570.18,0.0
55650.0,STARLINK-5494,PAYLOAD,2024-02-15 18:47:58,14.98323653,0.0002776,69.9989,282.7883,269.1608,90.9233,-2.6639e-05,-4.11e-06,0.0,0 STARLINK-5494,1 55650U 23021Y   24046.78331673 -.00000411  00000-0 -26639-4 0  9991,2 55650  69.9989 282.7883 0002776 269.1608  90.9233 14.98323653 55713,6950.213,96.107,574.007,570.148,0.0
55650.0,STARLINK-5494,PAYLOAD,2024-02-15 22:00:14,14.98326735,0.0002732,69.9989,282.4514,266.1051,93.9795,-2.1117e-05,-3.45e-06,0.0,0 STARLINK-5494,1 55650U 23021Y   24046.91683470 -.00000345  00000-0 -21117-4 0  9993,2 55650  69.9989 282.4514 0002732 266.1051  93.9795 14.98326735 56038,6950.203,96.107,573.967,570.169,0.0
55650.0,STARLINK-5494,PAYLOAD,2024-02-16 09:13:10,14.98329027,0.0002507,69.9989,281.2707,269.6701,90.417,-1.6011e-05,-2.84e-06,0.0,0 STARLINK-5494,1 55650U 23021Y   24047.38415451 -.00000284  00000-0 -16011-4 0  9996,2 55650  69.9989 281.2707 0002507 269.6701  90.4170 14.98329027 56103,6950.196,96.107,573.803,570.318,0.0
55650.0,STARLINK-5494,PAYLOAD,2024-02-16 18:49:59,14.98315871,0.0002635,69.9985,280.2619,267.0711,93.0147,-0.00013305,-1.679e-05,0.0,0 STARLINK-5494,1 55650U 23021Y   24047.78471859 -.00001679  00000-0 -13305-3 0  9995,2 55650  69.9985 280.2619 0002635 267.0711  93.0147 14.98315871 55862,6950.237,96.108,573.933,570.27,0.0
55650.0,STARLINK-5494,PAYLOAD,2024-02-16 22:02:13,14.98339421,0.000282,69.9988,279.9242,248.6815,111.4043,7.8911e-05,8.49e-06,0.0,0 STARLINK-5494,1 55650U 23021Y   24047.91821642  .00000849  00000-0  78911-4 0  9990,2 55650  69.9988 279.9242 0002820 248.6815 111.4043 14.98339421 56181,6950.164,96.106,573.989,570.069,0.0
55650.0,STARLINK-5494,PAYLOAD,2024-02-17 01:14:26,14.98381318,0.0002803,69.9988,279.5875,276.27,83.814,0.00054025,6.367e-05,0.0,0 STARLINK-5494,1 55650U 23021Y   24048.05169861  .00006367  00000-0  54025-3 0  9994,2 55650  69.9988 279.5875 0002803 276.2700  83.8140 14.98381318 55901,6950.034,96.104,573.847,569.951,0.0
55650.0,STARLINK-5494,PAYLOAD,2024-02-17 09:15:06,14.9837208,0.0002693,69.9996,278.7473,272.6113,87.4737,0.00044216,5.192e-05,0.0,0 STARLINK-5494,1 55650U 23021Y   24048.38549755  .00005192  00000-0  44216-3 0  9990,2 55650  69.9996 278.7473 0002693 272.6113  87.4737 14.98372080 55953,6950.063,96.104,573.799,570.056,0.0
